FLOCK 4S-13             
1 47472U 21006BM  22216.11723928  .00007681  00000+0  39324-3 0  9994
2 47472  97.4426 274.3533 0009072 122.9969 237.2138 15.16850727 84472
FLOCK 4S-35             
1 47473U 21006BN  22216.38874305  .00007744  00000+0  38254-3 0  9991
2 47473  97.4408 274.6717 0008545 119.9366 240.2717 15.18108234 84525
FLOCK 4S-8              
1 47474U 21006BP  22215.79680166  .00001334  00000+0  74982-4 0  9994
2 47474  97.4359 273.1301 0009862 124.4648 235.7517 15.14944137 84401
FLOCK 4S-31             
1 47475U 21006BQ  22215.58588751  .00007203  00000+0  36840-3 0  9990
2 47475  97.4350 273.2925 0008639 121.6715 238.5362 15.16909062 84398
FLOCK 4S-34             
1 47477U 21006BS  22215.59606247  .00005978  00000+0  30711-3 0  9992
2 47477  97.4408 273.7239 0008492 122.3246 237.8811 15.16829696 84396
FLOCK 4S-9              
1 47478U 21006BT  22216.38819540  .00007881  00000+0  40297-3 0  9998
2 47478  97.4353 274.0830 0009047 124.5542 235.6547 15.16885353 84515
FLOCK 4S-32             
1 47479U 21006BU  22215.85565737  .00007959  00000+0  38959-3 0  9994
2 47479  97.4351 273.7417 0008116 123.1136 237.0878 15.18420174 84444
FLOCK 4S-39             
1 47490U 21006CF  22215.82241550  .00001916  00000+0  10081-3 0  9991
2 47490  97.4453 274.4248 0011374 113.2407 247.0025 15.16788447 84444
FLOCK 4S-4              
1 47491U 21006CG  22216.14817175  .00002021  00000+0  10608-3 0  9993
2 47491  97.4328 273.9016 0011306 110.6263 249.6184 15.16804713 84493
FLOCK 4S-17             
1 47492U 21006CH  22215.61817595  .00003048  00000+0  15835-3 0  9998
2 47492  97.4462 274.2792 0011345 113.5971 246.6454 15.16790379 84410
FLOCK 4S-3              
1 47494U 21006CK  22216.43678394  .00002291  00000+0  12527-3 0  9997
2 47494  97.4341 273.9026 0011792 109.3336 250.9172 15.15221461 84514
FLOCK 4S-27             
1 47495U 21006CL  22216.14188131  .00002872  00000+0  14924-3 0  9999
2 47495  97.4335 273.9643 0011838 111.4185 248.8312 15.16826485 84497
FLOCK 4S-18             
1 47496U 21006CM  22216.33868384  .00005985  00000+0  30733-3 0  9990
2 47496  97.4439 274.9126 0011593 110.6405 249.6073 15.16818848 84525
FLOCK 4S-26             
1 47497U 21006CN  22216.11480368  .00008687  00000+0  40790-3 0  9995
2 47497  97.4325 274.4571 0010426 107.7104 252.5270 15.19820217 84524
FLOCK 4S-2              
1 47498U 21006CP  22216.13342285  .00004395  00000+0  22645-3 0  9994
2 47498  97.4344 274.0183 0011408 107.8351 252.4128 15.16842110 84497
FLOCK 4S-40             
1 47499U 21006CQ  22216.14415565  .00004108  00000+0  21236-3 0  9995
2 47499  97.4443 274.7027 0011769 112.2874 247.9608 15.16761476 84499
FLOCK 4S-19             
1 47500U 21006CR  22215.60077701  .00004148  00000+0  21399-3 0  9998
2 47500  97.4438 274.1964 0012082 111.0873 249.1654 15.16828059 84413
FLOCK 4S-28             
1 47514U 21006DE  22215.62520396  .00001982  00000+0  10417-3 0  9990
2 47514  97.4335 273.2468 0009377 120.5046 239.7114 15.16805785 85365
FLOCK 4S-5              
1 47515U 21006DF  22215.42549960  .00002130  00000+0  11163-3 0  9992
2 47515  97.4324 273.0080 0009738 122.6905 237.5268 15.16812668 84374
FLOCK 4S-16             
1 47516U 21006DG  22215.63392754  .00002375  00000+0  12411-3 0  9991
2 47516  97.4443 274.0548 0009697 121.3870 238.8313 15.16822144 85363
FLOCK 4S-6              
1 47518U 21006DJ  22216.16326332  .00001944  00000+0  10221-3 0  9999
2 47518  97.4342 273.7907 0009478 121.9953 238.2202 15.16803417 85456
FLOCK 4S-29             
1 47520U 21006DL  22216.48828999  .00002183  00000+0  11437-3 0  9999
2 47520  97.4344 274.1653 0009107 119.1919 241.0227 15.16803737 84536
FLOCK 4S-15             
1 47521U 21006DM  22215.58550956  .00001387  00000+0  77091-4 0  9999
2 47521  97.4457 273.7825 0009870 124.3051 235.9117 15.15295657 85356
FLOCK 4S-37             
1 47522U 21006DN  22216.16652125  .00002231  00000+0  11679-3 0  9994
2 47522  97.4429 274.4668 0009156 121.6983 238.5145 15.16818821 85456
FLOCK 4S-10             
1 47523U 21006DP  22216.46960635  .00001975  00000+0  10379-3 0  9996
2 47523  97.4368 274.1977 0009205 124.3158 235.8947 15.16816852 84527
FLOCK 4S-7              
1 47527U 21006DT  22215.64220561  .00001994  00000+0  10479-3 0  9998
2 47527  97.4342 273.2701 0009185 123.7621 236.4488 15.16797813 85368
FLOCK 4S-14             
1 47528U 21006DU  22215.64756396  .00002323  00000+0  12155-3 0  9999
2 47528  97.4435 273.9573 0009299 124.1840 236.0276 15.16791966 85364
FLOCK 4S-36             
1 47530U 21006DW  22216.11043347  .00002378  00000+0  12426-3 0  9991
2 47530  97.4424 274.3400 0008802 121.4711 238.7384 15.16823842 85431
FLOCK 4S-24             
1 47539U 21006DZ  22215.58473099  .00002276  00000+0  11918-3 0  9993
2 47539  97.4374 273.7369 0012415 110.2466 250.0103 15.16762862 84416
FLOCK 4S-20             
1 47540U 21006EA  22215.58656060  .00001996  00000+0  10471-3 0  9997
2 47540  97.4433 274.1317 0011635 110.6428 249.6054 15.16837349 83485
FLOCK 4S-25             
1 47542U 21006EC  22215.59391065  .00006631  00000+0  33992-3 0  9995
2 47542  97.4349 273.5766 0011972 111.9237 248.3270 15.16831459 83482
FLOCK 4S-1              
1 47543U 21006ED  22215.59215657  .00005799  00000+0  29760-3 0  9990
2 47543  97.4349 273.5688 0011462 108.8458 251.4020 15.16851724 83485
FLOCK 4S-30             
1 47544U 21006EE  22215.63879760  .00002325  00000+0  12155-3 0  9999
2 47544  97.4349 273.3596 0008888 121.7914 238.4186 15.16821030 85365
FLOCK 4S-23             
1 47545U 21006EF  22216.16252151  .00002229  00000+0  11646-3 0  9995
2 47545  97.4384 274.4172 0011956 109.7307 250.5217 15.16867242 85476
FLOCK 4S-42             
1 47612U 21006EQ  22216.15823468  .00002986  00000+0  15513-3 0  9991
2 47612  97.4407 274.4558 0012172 120.4108 239.8330 15.16798622 84497
FLOCK 4S-48             
1 47617U 21006EJ  22215.60883223  .00005556  00000+0  28560-3 0  9992
2 47617  97.4396 274.0318 0012848 104.2048 256.0613 15.16799730 85398
FLOCK 4S-46             
1 47684U 21006EK  22215.62038356  .00002218  00000+0  11622-3 0  9990
2 47684  97.4397 273.9884 0008899 130.3849 229.8162 15.16794854 84421
FLOCK 4S-47             
1 47685U 21006EL  22215.74895264  .00004322  00000+0  22320-3 0  9998
2 47685  97.4375 273.5749 0008093 124.4077 235.7922 15.16803177 85382
FLOCK 4S-44             
1 47686U 21006EM  22215.60368773  .00003142  00000+0  16294-3 0  9996
2 47686  97.4420 274.0330 0013004 117.2669 242.9891 15.16814281 84417
FLOCK 4S-43             
1 47687U 21006EN  22215.59068281  .00006494  00000+0  33320-3 0  9998
2 47687  97.4386 273.5724 0007983 114.2966 245.9102 15.16839412 85362
FLOCK 4S-45             
1 47688U 21006EP  22216.39228554  .00006165  00000+0  31620-3 0  9995
2 47688  97.4399 274.2855 0012004 102.8813 257.3762 15.16843586 85472
FLOCK 4S-41             
1 47698U 21006ER  22215.62944251  .00002211  00000+0  11584-3 0  9995
2 47698  97.4454 274.0979 0011476 115.0985 245.1440 15.16787892 84405
FLOCK 4X-8              
1 50992U 22002J   22215.44953454  .00003280  00000+0  17539-3 0  9991
2 50992  97.4847 281.9832 0009900 268.5931  91.4168 15.15735297 30547
FLOCK 4X-44             
1 50994U 22002L   22215.65410960  .00005364  00000+0  28489-3 0  9997
2 50994  97.4867 282.2281 0009935 266.5086  93.5010 15.15694842 30572
FLOCK 4X-2              
1 50996U 22002N   22215.78389885  .00001898  00000+0  10306-3 0  9991
2 50996  97.4863 282.3357 0009885 266.3006  93.7096 15.15703479 30594
FLOCK 4X-20             
1 50997U 22002P   22215.18651236  .00004687  00000+0  24914-3 0  9997
2 50997  97.4853 281.7490 0009784 269.5841  90.4271 15.15728469 30501
FLOCK 4X-30             
1 51000U 22002S   22215.84859816  .00003102  00000+0  16611-3 0  9996
2 51000  97.4803 282.2511 0009823 256.6046 103.4092 15.15722119 30603
FLOCK 4X-22             
1 51003U 22002V   22215.64626148  .00002510  00000+0  13511-3 0  9995
2 51003  97.4840 282.1656 0009987 269.4822  90.5266 15.15722981 30573
FLOCK 4X-5              
1 51004U 22002W   22216.43735163  .00004110  00000+0  21863-3 0  9999
2 51004  97.4814 282.8739 0010251 256.4259 103.5832 15.15771012 30696
FLOCK 4X-41             
1 51005U 22002X   22215.84052853  .00001894  00000+0  10278-3 0  9996
2 51005  97.4802 282.2445 0009885 254.9360 105.0779 15.15740292 30603
FLOCK 4X-3              
1 51006U 22002Y   22216.50021300  .00002963  00000+0  15857-3 0  9990
2 51006  97.4853 283.0550 0010539 261.2838  98.7201 15.15775638 30706
FLOCK 4X-18             
1 51007U 22002Z   22215.83818616  .00002358  00000+0  12694-3 0  9994
2 51007  97.4817 282.3016 0010619 258.8647 101.1392 15.15768041 30604
FLOCK 4X-37             
1 51009U 22002AB  22215.83762866  .00003933  00000+0  20921-3 0  9993
2 51009  97.4861 282.4303 0010725 263.4979  96.5032 15.15800389 30603
FLOCK 4X-15             
1 51010U 22002AC  22215.63256626  .00003290  00000+0  17580-3 0  9998
2 51010  97.4867 282.2553 0010847 262.4454  97.5546 15.15753576 30570
FLOCK 4X-29             
1 51011U 22002AD  22215.83540622  .00003925  00000+0  20898-3 0  9994
2 51011  97.4811 282.2875 0010540 257.3937 102.6117 15.15766804 30600
FLOCK 4X-27             
1 51012U 22002AE  22215.63604831  .00004662  00000+0  24732-3 0  9996
2 51012  97.4848 282.2045 0010859 267.1989  92.8001 15.15793356 30579
FLOCK 4X-12             
1 51015U 22002AH  22215.63004937  .00004658  00000+0  24711-3 0  9992
2 51015  97.4852 282.2179 0011140 260.2771  99.7203 15.15791095 30570
FLOCK 4X-25             
1 51016U 22002AJ  22215.83270201  .00003769  00000+0  20038-3 0  9994
2 51016  97.4834 282.3677 0010636 268.1637  91.8377 15.15839876 30601
FLOCK 4X-1              
1 51017U 22002AK  22215.82585755  .00003934  00000+0  20943-3 0  9996
2 51017  97.4816 282.3212 0011014 259.1589 100.8404 15.15766209 30605
FLOCK 4X-42             
1 51018U 22002AL  22215.63086439  .00004733  00000+0  25100-3 0  9999
2 51018  97.4800 282.0825 0010617 254.2542 105.7520 15.15800782 30573
